STARLINK-4759           
1 53829U 22114M   26190.19116033  .00000446  00000+0  46110-4 0  9998
2 53829  53.1594 118.4739 0001251  94.2928 265.8207 15.08834500211178
STARLINK-4761           
1 53830U 22114N   26191.23257999 -.00000811  00000+0 -32853-4 0  9990
2 53830  53.1600 113.5989 0001306  89.1172 270.9969 15.08833620211338
STARLINK-4649           
1 53831U 22114P   26193.16827634 -.00000352  00000+0 -40443-5 0  9999
2 53831  53.1593 105.0525 0001276  90.7433 269.3704 15.08834209211621
STARLINK-4747           
1 53832U 22114Q   26193.14617370  .00000108  00000+0  24869-4 0  9992
2 53832  53.1596 104.9174 0001408  95.6517 264.4635 15.08835420211622
STARLINK-4771           
1 53833U 22114R   26193.15818535  .00000974  00000+0  79293-4 0  9992
2 53833  53.1609 104.9898 0001608  96.0756 264.0418 15.08841517211622
STARLINK-4737           
1 53834U 22114S   26193.13880461  .00000378  00000+0  41838-4 0  9990
2 53834  53.1610 104.8727 0001327  85.2026 274.9117 15.08844075211621
STARLINK-4783           
1 53835U 22114T   26193.14985738 -.00000647  00000+0 -22583-4 0  9992
2 53835  53.1594 104.9403 0001427  98.3362 261.7791 15.08841337211624
STARLINK-4778           
1 53836U 22114U   26193.19405537 -.00048334  00000+0 -88104-3 0  9997
2 53836  53.2179  81.4065 0001067  98.0697 262.0434 15.48834322211961
STARLINK-4776           
1 53837U 22114V   26193.14249397 -.00000978  00000+0 -43382-4 0  9995
2 53837  53.1627 104.8947 0001730  82.5043 277.6145 15.08833979211625
STARLINK-4773           
1 53838U 22114W   26193.11771917  .00000781  00000+0  67199-4 0  9993
2 53838  53.1614  95.4695 0001514  86.7944 273.3220 15.08834211211754
STARLINK-4784           
1 53839U 22114X   26193.12505373  .00001797  00000+0  13094-3 0  9998
2 53839  53.1595  95.5118 0001246  92.2904 267.8230 15.08847940211756
STARLINK-4766           
1 53840U 22114Y   26193.15147911  .00001020  00000+0  44611-4 0  9992
2 53840  53.1622  91.4677 0001212  91.7614 268.3527 15.31701989211819
STARLINK-4750           
1 53841U 22114Z   26193.11399661  .00003258  00000+0  22260-3 0  9990
2 53841  53.1620  95.4434 0001741  78.4653 281.6534 15.08854214211758
STARLINK-4754           
1 53842U 22114AA  26193.16552053 -.00000075  00000+0  13415-4 0  9990
2 53842  53.1621  95.0515 0001270  92.9147 267.1989 15.08828170211768
STARLINK-4769           
1 53843U 22114AB  26193.17659102 -.00002531  00000+0 -14110-3 0  9997
2 53843  53.1593  95.1164 0001244 165.5856 194.5171 15.08813913211768
STARLINK-4745           
1 53844U 22114AC  26193.10800258 -.00002476  00000+0 -14088-3 0  9993
2 53844  53.1601  95.4292 0001143  88.7914 271.3208 15.08003384211750
STARLINK-4753           
1 53845U 22114AD  26193.10297498 -.00000019  00000+0  16889-4 0  9992
2 53845  53.1594  95.3940 0001331  87.2965 272.8178 15.08832401211752
STARLINK-4746           
1 53846U 22114AE  26193.15077241 -.00000331  00000+0 -26745-5 0  9991
2 53846  53.1594  94.9608 0001266 100.0229 260.0905 15.08838154211762
STARLINK-4777           
1 53847U 22114AF  26193.09559257 -.00000565  00000+0 -17408-4 0  9991
2 53847  53.1601  95.3270 0001424  93.6054 266.5100 15.08832972211750
STARLINK-4780           
1 53848U 22114AG  26192.87845294 -.00000120  00000+0  10570-4 0  9995
2 53848  53.1607  96.1107 0001013  91.2971 268.8137 15.08834471211729
STARLINK-4770           
1 53849U 22114AH  26193.15615375  .00000647  00000+0  32613-4 0  9998
2 53849  53.1620  91.4942 0001389  89.7372 270.3788 15.31699655211812
STARLINK-4767           
1 53850U 22114AJ  26190.15156738  .00000267  00000+0  34924-4 0  9995
2 53850  53.1607 108.2454 0002009  93.2876 266.8346 15.08814450211314
STARLINK-4755           
1 53851U 22114AK  26193.14709554 -.00000107  00000+0  11360-4 0  9991
2 53851  53.1587  94.9390 0001158  79.7365 280.3757 15.08837869211763
STARLINK-4797           
1 53852U 22114AL  26193.09413448  .00003100  00000+0  21260-3 0  9994
2 53852  53.1590  90.3307 0002709 135.0840 225.0371 15.08876710211826
STARLINK-4794           
1 53853U 22114AM  26192.94100309  .00031543  00000+0  20001-2 0  9990
2 53853  53.1598  95.7876 0002435  92.9241 267.2029 15.08672895211733
STARLINK-4800           
1 53854U 22114AN  26193.16668980  .00082254  00000+0  47814-2 0  9996
2 53854  53.1607  85.2920 0000577   9.1913 241.8055 15.11373682  5633
STARLINK-4703           
1 53855U 22114AP  26193.14214523  .00000725  00000+0  35108-4 0  9993
2 53855  53.1630  91.4073 0001232  91.0755 269.0388 15.31707056211819
STARLINK-4795           
1 53856U 22114AQ  26193.16668980 -.00043708  00000+0 -21341-3 0  9999
2 53856  53.2164  55.6299 0000795  58.5272 234.7301 15.81433130  5910
STARLINK-4809           
1 53857U 22114AR  26193.10489965  .00000274  00000+0  20606-4 0  9991
2 53857  53.1601  91.8867 0001186  84.8114 275.3023 15.31701646211805
STARLINK-4790           
1 53859U 22114AT  26193.13459338  .00009523  00000+0  61460-3 0  9995
2 53859  53.1616  89.8756 0001829  73.5989 286.5204 15.08901315211833
