OBJECT_NAME,OBJECT_ID,EPOCH,MEAN_MOTION,ECCENTRICITY,INCLINATION,RA_OF_ASC_NODE,ARG_OF_PERICENTER,MEAN_ANOMALY,EPHEMERIS_TYPE,CLASSIFICATION_TYPE,NORAD_CAT_ID,ELEMENT_SET_NO,REV_AT_EPOCH,BSTAR,MEAN_MOTION_DOT,MEAN_MOTION_DDOT
STARLINK-4759,2022-114M,2026-07-09T04:35:16.252512,15.08834500,.00012516,53.1594,118.4739,94.2928,265.8207,0,U,53829,999,21117,.46109904E-4,.446E-5,0
STARLINK-4761,2022-114N,2026-07-10T05:34:54.911136,15.08833620,.00013065,53.1600,113.5989,89.1172,270.9969,0,U,53830,999,21133,-.32853417E-4,-.811E-5,0
STARLINK-4649,2022-114P,2026-07-12T04:02:19.075776,15.08834209,.0001276,53.1593,105.0525,90.7433,269.3704,0,U,53831,999,21162,-.40443E-5,-.352E-5,0
STARLINK-4747,2022-114Q,2026-07-12T03:30:29.407680,15.08835420,.0001408,53.1596,104.9174,95.6517,264.4635,0,U,53832,999,21162,.24869E-4,.108E-5,0
STARLINK-4771,2022-114R,2026-07-12T03:47:47.214240,15.08841517,.0001608,53.1609,104.9898,96.0756,264.0418,0,U,53833,999,21162,.79293E-4,.974E-5,0
STARLINK-4737,2022-114S,2026-07-12T03:19:52.718304,15.08844075,.0001327,53.1610,104.8727,85.2026,274.9117,0,U,53834,999,21162,.41838E-4,.378E-5,0
STARLINK-4783,2022-114T,2026-07-12T03:35:47.677632,15.08841337,.0001427,53.1594,104.9403,98.3362,261.7791,0,U,53835,999,21162,-.22583E-4,-.647E-5,0
STARLINK-4778,2022-114U,2026-07-12T04:39:26.383968,15.48834322,.0001067,53.2179,81.4065,98.0697,262.0434,0,U,53836,999,21196,-.88104E-3,-.48334E-3,0
STARLINK-4776,2022-114V,2026-07-12T03:25:11.479008,15.08833979,.000173,53.1627,104.8947,82.5043,277.6145,0,U,53837,999,21162,-.43382E-4,-.978E-5,0
STARLINK-4773,2022-114W,2026-07-12T02:49:30.936288,15.08834211,.0001514,53.1614,95.4695,86.7944,273.3220,0,U,53838,999,21175,.67199E-4,.781E-5,0
STARLINK-4784,2022-114X,2026-07-12T03:00:04.642272,15.08847940,.0001246,53.1595,95.5118,92.2904,267.8230,0,U,53839,999,21175,.13094E-3,.1797E-4,0
STARLINK-4766,2022-114Y,2026-07-12T03:38:07.795104,15.31701989,.0001212,53.1622,91.4677,91.7614,268.3527,0,U,53840,999,21181,.44611E-4,.102E-4,0
STARLINK-4750,2022-114Z,2026-07-12T02:44:09.307104,15.08854214,.0001741,53.1620,95.4434,78.4653,281.6534,0,U,53841,999,21175,.2226E-3,.3258E-4,0
STARLINK-4754,2022-114AA,2026-07-12T03:58:20.973792,15.08828170,.000127,53.1621,95.0515,92.9147,267.1989,0,U,53842,999,21176,.13415E-4,-.75E-6,0
STARLINK-4769,2022-114AB,2026-07-12T04:14:17.464128,15.08813913,.0001244,53.1593,95.1164,165.5856,194.5171,0,U,53843,999,21176,-.1411E-3,-.2531E-4,0
STARLINK-4745,2022-114AC,2026-07-12T02:35:31.422912,15.08003384,.0001143,53.1601,95.4292,88.7914,271.3208,0,U,53844,999,21175,-.14088E-3,-.2476E-4,0
STARLINK-4753,2022-114AD,2026-07-12T02:28:17.038272,15.08832401,.0001331,53.1594,95.3940,87.2965,272.8178,0,U,53845,999,21175,.16889E-4,-.19E-6,0
STARLINK-4746,2022-114AE,2026-07-12T03:37:06.736224,15.08838154,.0001266,53.1594,94.9608,100.0229,260.0905,0,U,53846,999,21176,-.26745E-5,-.331E-5,0
STARLINK-4777,2022-114AF,2026-07-12T02:17:39.198048,15.08832972,.0001424,53.1601,95.3270,93.6054,266.5100,0,U,53847,999,21175,-.17408E-4,-.565E-5,0
STARLINK-4780,2022-114AG,2026-07-11T21:04:58.334016,15.08834471,.00010135,53.1607,96.1107,91.2971,268.8137,0,U,53848,999,21172,.10570107E-4,-.12E-5,0
STARLINK-4770,2022-114AH,2026-07-12T03:44:51.684000,15.31699655,.0001389,53.1620,91.4942,89.7372,270.3788,0,U,53849,999,21181,.32613E-4,.647E-5,0
STARLINK-4767,2022-114AJ,2026-07-09T03:38:15.421632,15.08814450,.00020099,53.1607,108.2454,93.2876,266.8346,0,U,53850,999,21131,.34923771E-4,.267E-5,0
STARLINK-4755,2022-114AK,2026-07-12T03:31:49.054656,15.08837869,.0001158,53.1587,94.9390,79.7365,280.3757,0,U,53851,999,21176,.1136E-4,-.107E-5,0
STARLINK-4797,2022-114AL,2026-07-12T02:15:33.219072,15.08876710,.0002709,53.1590,90.3307,135.0840,225.0371,0,U,53852,999,21182,.2126E-3,.31E-4,0
STARLINK-4794,2022-114AM,2026-07-11T22:35:02.666976,15.08672895,.0002435,53.1598,95.7876,92.9241,267.2029,0,U,53853,999,21173,.20001E-2,.31543E-3,0
STARLINK-4800,2022-114AN,2026-07-12T04:00:01.998720,15.11373682,.0000577,53.1607,85.2920,9.1913,241.8055,0,U,53854,999,563,.47814E-2,.82254E-3,0
STARLINK-4703,2022-114AP,2026-07-12T03:24:41.347872,15.31707056,.0001232,53.1630,91.4073,91.0755,269.0388,0,U,53855,999,21181,.35108E-4,.725E-5,0
STARLINK-4795,2022-114AQ,2026-07-12T04:00:01.998720,15.81433130,.0000795,53.2164,55.6299,58.5272,234.7301,0,U,53856,999,591,-.21341E-3,-.43708E-3,0
STARLINK-4809,2022-114AR,2026-07-12T02:31:03.329760,15.31701646,.0001186,53.1601,91.8867,84.8114,275.3023,0,U,53857,999,21180,.20606E-4,.274E-5,0
STARLINK-4790,2022-114AT,2026-07-12T03:13:48.868032,15.08901315,.0001829,53.1616,89.8756,73.5989,286.5204,0,U,53859,999,21183,.6146E-3,.9523E-4,0
